IRIDIUM 159             
1 43578U 18061K   26012.76197291 -.00000020  00000+0 -14042-4 0  9994
2 43578  86.3992 121.7097 0001860  99.7861 260.3545 14.34217453391101
IRIDIUM 180             
1 43922U 19002A   26012.83123789  .00000084  00000+0  22778-4 0  9995
2 43922  86.3940  58.5381 0002143  96.9149 263.2291 14.34217853366727
IRIDIUM 176             
1 43923U 19002B   26012.85279908  .00000594  00000+0  90351-4 0  9991
2 43923  86.6062  58.4951 0002561  95.6820 264.4689 14.72241443376396
IRIDIUM 168             
1 43924U 19002C   26012.82489167  .00000028  00000+0  30485-5 0  9994
2 43924  86.3937  58.6137 0002218  94.4947 265.6502 14.34216090366708
IRIDIUM 173             
1 43925U 19002D   26012.88197369  .00000162  00000+0  50754-4 0  9990
2 43925  86.3936  58.4850 0002324  96.9856 263.1604 14.34215912366698
IRIDIUM 169             
1 43926U 19002E   26012.93421295 -.00000456  00000+0 -15579-3 0  9998
2 43926  86.4206  90.1223 0003026  97.9484 262.2057 14.38608367367906
IRIDIUM 172             
1 43927U 19002F   26012.87563492  .00000261  00000+0  86189-4 0  9996
2 43927  86.3939  58.4951 0002045  97.1608 262.9820 14.34217389366702
IRIDIUM 175             
1 43928U 19002G   26012.91610070  .00000857  00000+0  13196-3 0  9995
2 43928  86.1508 359.1142 0002574  62.9323 297.2156 14.72248269376399
